NORAD_CAT_ID,OBJECT_NAME,OBJECT_TYPE,EPOCH,MEAN_MOTION,ECCENTRICITY,INCLINATION,RA_OF_ASC_NODE,ARG_OF_PERICENTER,MEAN_ANOMALY,BSTAR,MEAN_MOTION_DOT,MEAN_MOTION_DDOT,TLE_LINE0,TLE_LINE1,TLE_LINE2,SEMIMAJOR_AXIS,PERIOD,APOGEE,PERIGEE,DECAYED
53929.0,STARLINK-5018,PAYLOAD,2023-06-30 15:38:29,15.08836959,0.0001058,53.2166,46.8594,94.1422,265.9691,-1.9399e-05,-5.96e-06,0.0,0 STARLINK-5018,1 53929U 22119AV  23181.65173176 -.00000596  00000-0 -19399-4 0  9991,2 53929  53.2166  46.8594 0001058  94.1422 265.9691 15.08836959 43004,6917.89,95.438,540.487,539.023,0.0
53929.0,STARLINK-5018,PAYLOAD,2023-07-01 18:40:03,15.08836789,0.0001082,53.2174,41.8046,96.104,264.0075,-7.3953e-06,-4.05e-06,0.0,0 STARLINK-5018,1 53929U 22119AV  23182.77781379 -.00000405  00000-0 -73953-5 0  9991,2 53929  53.2174  41.8046 0001082  96.1040 264.0075 15.08836789 43170,6917.89,95.438,540.504,539.007,0.0
53929.0,STARLINK-5018,PAYLOAD,2023-07-03 00:52:22,15.0884221,0.0001052,53.2179,36.1547,93.3062,266.8051,4.0613e-05,3.59e-06,0.0,0 STARLINK-5018,1 53929U 22119AV  23184.03637073  .00000359  00000-0  40613-4 0  9995,2 53929  53.2179  36.1547 0001052  93.3062 266.8051 15.08842210 43369,6917.874,95.437,540.466,539.011,0.0
53929.0,STARLINK-5018,PAYLOAD,2023-07-03 16:46:14,15.0883656,9.76e-05,53.2166,33.1792,91.0251,269.0853,3.8385e-05,3.23e-06,0.0,0 STARLINK-5018,1 53929U 22119AV  23184.69877468  .00000323  00000-0  38385-4 0  9995,2 53929  53.2166  33.1792 0000976  91.0251 269.0853 15.08836560 43460,6917.891,95.438,540.431,539.081,0.0
53929.0,STARLINK-5018,PAYLOAD,2023-07-04 02:18:32,15.08839423,0.000109,53.2174,31.3954,96.635,263.4766,0.0001487,2.08e-05,0.0,0 STARLINK-5018,1 53929U 22119AV  23185.09620918  .00002080  00000-0  14870-3 0  9990,2 53929  53.2174  31.3954 0001090  96.6350 263.4766 15.08839423 43527,6917.882,95.438,540.501,538.993,0.0
53929.0,STARLINK-5018,PAYLOAD,2023-07-04 19:47:47,15.08840105,0.0001054,53.218,28.1254,96.1,264.0112,-1.3711e-05,-5.06e-06,0.0,0 STARLINK-5018,1 53929U 22119AV  23185.82485544 -.00000506  00000-0 -13711-4 0  9992,2 53929  53.2180  28.1254 0001054  96.1000 264.0112 15.08840105 43631,6917.88,95.438,540.474,539.016,0.0
53929.0,STARLINK-5018,PAYLOAD,2023-07-05 22:49:20,15.08844829,0.0001049,53.2179,23.0702,85.2054,274.9058,3.8221e-05,3.21e-06,0.0,0 STARLINK-5018,1 53929U 22119AV  23186.95093025  .00000321  00000-0  38221-4 0  9992,2 53929  53.2179  23.0702 0001049  85.2054 274.9058 15.08844829 43808,6917.866,95.437,540.456,539.005,0.0
53929.0,STARLINK-5018,PAYLOAD,2023-07-07 19:20:08,15.0883682,9.92e-05,53.2187,14.7468,74.4671,285.6431,4.3431e-05,4.03e-06,0.0,0 STARLINK-5018,1 53929U 22119AV  23188.80565550  .00000403  00000-0  43431-4 0  9995,2 53929  53.2187  14.7468 0000992  74.4671 285.6431 15.08836820 44081,6917.89,95.438,540.441,539.069,0.0
53929.0,STARLINK-5018,PAYLOAD,2023-07-09 04:43:15,15.0883402,0.0001385,53.218,8.4967,81.1697,278.9452,-6.3115e-05,-1.292e-05,0.0,0 STARLINK-5018,1 53929U 22119AV  23190.19670262 -.00001292  00000-0 -63115-4 0  9997,2 53929  53.2180   8.4967 0001385  81.1697 278.9452 15.08834020 44299,6917.899,95.438,540.722,538.806,0.0
53929.0,STARLINK-5018,PAYLOAD,2023-07-09 17:26:18,15.08858325,0.0001009,53.2181,6.1198,88.1686,271.9421,0.00020396,2.961e-05,0.0,0 STARLINK-5018,1 53929U 22119AV  23190.72660187  .00002961  00000-0  20396-3 0  9996,2 53929  53.2181   6.1198 0001009  88.1686 271.9421 15.08858325 44371,6917.824,95.436,540.387,538.991,0.0
53929.0,STARLINK-5018,PAYLOAD,2023-07-10 04:34:02,15.0883784,0.000106,53.2181,4.0375,80.3512,279.76,-4.4961e-06,-3.59e-06,0.0,0 STARLINK-5018,1 53929U 22119AV  23191.19030207 -.00000359  00000-0 -44961-5 0  9999,2 53929  53.2181   4.0375 0001060  80.3512 279.7600 15.08837840 44446,6917.887,95.438,540.485,539.019,0.0
53929.0,STARLINK-5018,PAYLOAD,2023-07-10 22:03:15,15.08848205,0.0001013,53.2181,0.7666,86.9375,273.1733,0.00010443,1.375e-05,0.0,0 STARLINK-5018,1 53929U 22119AV  23191.91893205  .00001375  00000-0  10443-3 0  9997,2 53929  53.2181   0.7666 0001013  86.9375 273.1733 15.08848205 44553,6917.855,95.437,540.421,539.02,0.0
53929.0,STARLINK-5018,PAYLOAD,2023-07-11 04:24:49,15.08836618,0.0001282,53.2187,359.5766,74.9831,285.1304,1.215e-05,-9.5e-07,0.0,0 STARLINK-5018,1 53929U 22119AV  23192.18390168 -.00000095  00000-0  12150-4 0  9994,2 53929  53.2187 359.5766 0001282  74.9831 285.1304 15.08836618 44593,6917.891,95.438,540.643,538.869,0.0
53929.0,STARLINK-5018,PAYLOAD,2023-07-12 16:58:41,15.0884139,8.77e-05,53.2198,352.7357,93.4047,266.7046,-4.6285e-06,-3.61e-06,0.0,0 STARLINK-5018,1 53929U 22119AV  23193.70742036 -.00000361  00000-0 -46285-5 0  9992,2 53929  53.2198 352.7357 0000877  93.4047 266.7046 15.08841390 44827,6917.876,95.437,540.348,539.134,0.0
53929.0,STARLINK-5018,PAYLOAD,2023-07-13 21:35:37,15.08843425,0.0001209,53.2186,347.3846,98.9822,261.1307,-1.3891e-05,-5.09e-06,0.0,0 STARLINK-5018,1 53929U 22119AV  23194.89973909 -.00000509  00000-0 -13891-4 0  9998,2 53929  53.2186 347.3846 0001209  98.9822 261.1307 15.08843425 45009,6917.87,95.437,540.571,538.899,0.0
53929.0,STARLINK-5018,PAYLOAD,2023-07-14 16:40:14,15.08851549,0.0001303,53.2183,343.8226,83.9508,276.1633,0.00013993,1.94e-05,0.0,0 STARLINK-5018,1 53929U 22119AV  23195.69460765  .00001940  00000-0  13993-3 0  9998,2 53929  53.2183 343.8226 0001303  83.9508 276.1633 15.08851549 45126,6917.845,95.437,540.611,538.809,0.0
53929.0,STARLINK-5018,PAYLOAD,2023-07-14 21:26:22,15.08865298,0.0001283,53.2182,342.9266,88.7332,271.3807,0.00020612,2.996e-05,0.0,0 STARLINK-5018,1 53929U 22119AV  23195.89331492  .00002996  00000-0  20612-3 0  9992,2 53929  53.2182 342.9266 0001283  88.7332 271.3807 15.08865298 45153,6917.803,95.436,540.556,538.781,0.0
53929.0,STARLINK-5018,PAYLOAD,2023-07-15 10:09:30,15.08824568,0.0001275,53.2179,340.5456,106.1591,253.9541,-5.8852e-05,-1.224e-05,0.0,0 STARLINK-5018,1 53929U 22119AV  23196.42326887 -.00001224  00000-0 -58852-4 0  9997,2 53929  53.2179 340.5456 0001275 106.1591 253.9541 15.08824568 45232,6917.928,95.439,540.675,538.911,0.0
53929.0,STARLINK-5018,PAYLOAD,2023-07-15 16:31:02,15.08833723,0.0001111,53.2181,339.3582,98.6911,261.4207,2.1936e-05,6.1e-07,0.0,0 STARLINK-5018,1 53929U 22119AV  23196.68822258  .00000061  00000-0  21936-4 0  9997,2 53929  53.2181 339.3582 0001111  98.6911 261.4207 15.08833723 45271,6917.9,95.438,540.533,538.996,0.0
53929.0,STARLINK-5018,PAYLOAD,2023-07-16 02:03:22,15.08827246,0.0001489,53.2183,337.5716,89.639,270.4773,-8.0595e-05,-1.57e-05,0.0,0 STARLINK-5018,1 53929U 22119AV  23197.08567209 -.00001570  00000-0 -80595-4 0  9998,2 53929  53.2183 337.5716 0001489  89.6390 270.4773 15.08827246 45339,6917.919,95.438,540.814,538.754,0.0
53929.0,STARLINK-5018,PAYLOAD,2023-07-16 19:32:36,15.08842305,0.0001052,53.2187,334.3033,85.8956,274.2156,-0.00011117,-2.057e-05,0.0,0 STARLINK-5018,1 53929U 22119AV  23197.81430574 -.00002057  00000-0 -11117-3 0  9997,2 53929  53.2187 334.3033 0001052  85.8956 274.2156 15.08842305 45444,6917.873,95.437,540.466,539.011,0.0
53929.0,STARLINK-5018,PAYLOAD,2023-07-17 16:12:36,15.08848265,9.2e-05,53.2182,330.4376,92.243,267.8667,0.00022743,3.334e-05,0.0,0 STARLINK-5018,1 53929U 22119AV  23198.67541762  .00003334  00000-0  22743-3 0  9998,2 53929  53.2182 330.4376 0000920  92.2430 267.8667 15.08848265 45578,6917.855,95.437,540.357,539.084,0.0
53929.0,STARLINK-5018,PAYLOAD,2023-07-18 14:28:00,15.08840998,0.0001122,53.2169,326.2729,71.6359,288.4755,9.7468e-05,1.264e-05,0.0,0 STARLINK-5018,1 53929U 22119AV  23199.60278617  .00001264  00000-0  97468-4 0  9995,2 53929  53.2169 326.2729 0001122  71.6359 288.4755 15.08840998 45712,6917.877,95.437,540.519,538.966,0.0
53929.0,STARLINK-5018,PAYLOAD,2023-07-18 20:49:32,15.08855002,0.000104,53.2168,325.0832,84.8811,275.23,0.00033071,4.981e-05,0.0,0 STARLINK-5018,1 53929U 22119AV  23199.86773962  .00004981  00000-0  33071-3 0  9994,2 53929  53.2168 325.0832 0001040  84.8811 275.2300 15.08855002 45757,6917.835,95.437,540.419,538.98,0.0
53929.0,STARLINK-5018,PAYLOAD,2023-07-19 07:57:15,15.08827177,9.88e-05,53.2188,322.9992,130.8704,229.2373,-0.00018407,-3.215e-05,0.0,0 STARLINK-5018,1 53929U 22119AV  23200.33142721 -.00003215  00000-0 -18407-3 0  9999,2 53929  53.2188 322.9992 0000988 130.8704 229.2373 15.08827177 45824,6917.92,95.438,540.468,539.101,0.0
53929.0,STARLINK-5018,PAYLOAD,2023-07-20 12:34:12,15.08849281,0.0001011,53.2167,317.6505,86.845,273.2657,0.0007888,0.00012291,0.0,0 STARLINK-5018,1 53929U 22119AV  23201.52375559  .00012291  00000-0  78880-3 0  9991,2 53929  53.2167 317.6505 0001011  86.8450 273.2657 15.08849281 46003,6917.852,95.437,540.416,539.018,0.0
53929.0,STARLINK-5018,PAYLOAD,2023-07-21 07:38:49,15.08851182,0.0001183,53.2166,314.0823,80.0672,280.0453,0.00047848,7.338e-05,0.0,0 STARLINK-5018,1 53929U 22119AV  23202.31863359  .00007338  00000-0  47848-3 0  9995,2 53929  53.2166 314.0823 0001183  80.0672 280.0453 15.08851182 46124,6917.846,95.437,540.53,538.893,0.0
53929.0,STARLINK-5018,PAYLOAD,2023-07-23 16:52:42,15.08850186,0.0001248,53.2179,303.3794,87.4788,272.6347,0.00094869,0.00014847,0.0,0 STARLINK-5018,1 53929U 22119AV  23204.70327338  .00014847  00000-0  94869-3 0  9990,2 53929  53.2179 303.3794 0001248  87.4788 272.6347 15.08850186 46905,6917.849,95.437,540.578,538.851,0.0
53929.0,STARLINK-5018,PAYLOAD,2023-07-25 11:48:07,15.08836816,0.0001198,53.2172,295.3497,84.6158,275.4971,-3.3123e-05,-8.15e-06,0.0,0 STARLINK-5018,1 53929U 22119AV  23206.49175689 -.00000815  00000-0 -33123-4 0  9997,2 53929  53.2172 295.3497 0001198  84.6158 275.4971 15.08836816 47170,6917.89,95.438,540.584,538.926,0.0
53929.0,STARLINK-5018,PAYLOAD,2023-07-26 08:28:08,15.08839817,0.0001663,53.2149,291.4838,76.619,283.4987,0.00012418,1.689e-05,0.0,0 STARLINK-5018,1 53929U 22119AV  23207.35287680  .00001689  00000-0  12418-3 0  9999,2 53929  53.2149 291.4838 0001663  76.6190 283.4987 15.08839817 47309,6917.881,95.438,540.896,538.596,0.0
